{"type": "FeatureCollection", "features": [ {"type": "Feature", "properties": {"norad_id": 30146, "name": "FENGYUN 1C DEB", "group": "fengyun-1c-debris", "lat": -71.80446874623847, "lon": -177.5714511404813, "alt_km": 1072.0004948047917, "timestamp": "2025-12-25T03:55:56.632143+00:00", "meta": {"OBJECT_NAME": "FENGYUN 1C DEB", "OBJECT_ID": "1999-025TB", "EPOCH": "2025-12-23T23:24:50.217408", "MEAN_MOTION": 13.86616374, "ECCENTRICITY": 0.0178676, "INCLINATION": 98.0204, "RA_OF_ASC_NODE": 156.0084, "ARG_OF_PERICENTER": 91.7759, "MEAN_ANOMALY": 26.9605, "EPHEMERIS_TYPE": 0, "CLASSIFICATION_TYPE": "U", "NORAD_CAT_ID": 30146, "ELEMENT_SET_NO": 999, "REV_AT_EPOCH": 95573, "BSTAR": 0.00049979, "MEAN_MOTION_DOT": 6.26e-06, "MEAN_MOTION_DDOT": 0}, "tle": {"line1": "1 30146U 99025TB  25357.97558122  .00000626  00000+0  49979-3 0  9994", "line2": "2 30146  98.0204 156.0084 0178676  91.7759  26.9605 13.86616374955738"}}, "geometry": {"type": "Point", "coordinates": [-177.5714511404813, -71.80446874623847]}}, {"type": "Feature", "properties": {"norad_id": 30148, "name": "FENGYUN 1C DEB", "group": "fengyun-1c-debris", "lat": 36.4103053183639, "lon": 141.6323710336333, "alt_km": 989.2186823634693, "timestamp": "2025-12-25T03:55:56.632154+00:00", "meta": {"OBJECT_NAME": "FENGYUN 1C DEB", "OBJECT_ID": "1999-025TD", "EPOCH": "2025-12-23T21:21:40.307040", "MEAN_MOTION": 13.88509981, "ECCENTRICITY": 0.0135019, "INCLINATION": 99.5459, "RA_OF_ASC_NODE": 147.4582, "ARG_OF_PERICENTER": 167.0982, "MEAN_ANOMALY": 347.3695, "EPHEMERIS_TYPE": 0, "CLASSIFICATION_TYPE": "U", "NORAD_CAT_ID": 30148, "ELEMENT_SET_NO": 999, "REV_AT_EPOCH": 95671, "BSTAR": 0.00074278, "MEAN_MOTION_DOT": 9.13e-06, "MEAN_MOTION_DDOT": 0}, "tle": {"line1": "1 30148U 99025TD  25357.89004985  .00000913  00000+0  74278-3 0  9999", "line2": "2 30148  99.5459 147.4582 0135019 167.0982 347.3695 13.88509981956719"}}, "geometry": {"type": "Point", "coordinates": [141.6323710336333, 36.4103053183639]}}, {"type": "Feature", "properties": {"norad_id": 30150, "name": "FENGYUN 1C DEB", "group": "fengyun-1c-debris", "lat": 80.97195867238005, "lon": 40.15815585425033, "alt_km": 1023.8458306811453, "timestamp": "2025-12-25T03:55:56.632164+00:00", "meta": {"OBJECT_NAME": "FENGYUN 1C DEB", "OBJECT_ID": "1999-025TF", "EPOCH": "2025-12-24T07:01:24.184128", "MEAN_MOTION": 13.86608469, "ECCENTRICITY": 0.01463929, "INCLINATION": 98.9949, "RA_OF_ASC_NODE": 133.8454, "ARG_OF_PERICENTER": 304.7253, "MEAN_ANOMALY": 118.5546, "EPHEMERIS_TYPE": 0, "CLASSIFICATION_TYPE": "U", "NORAD_CAT_ID": 30150, "ELEMENT_SET_NO": 999, "REV_AT_EPOCH": 95618, "BSTAR": 0.00053365346, "MEAN_MOTION_DOT": 6.31e-06, "MEAN_MOTION_DDOT": 0}, "tle": {"line1": "1 30150U 99025TF  25358.29264102  .00000631  00000+0  53365-3 0  9997", "line2": "2 30150  98.9949 133.8454 0146392 304.7253 118.5546 13.86608469956186"}}, "geometry": {"type": "Point", "coordinates": [40.15815585425033, 80.97195867238005]}}, {"type": "Feature", "properties": {"norad_id": 30151, "name": "FENGYUN 1C DEB", "group": "fengyun-1c-debris", "lat": 24.28165629639402, "lon": -169.15877192212704, "alt_km": 945.2939733333351, "timestamp": "2025-12-25T03:55:56.632175+00:00", "meta": {"OBJECT_NAME": "FENGYUN 1C DEB", "OBJECT_ID": "1999-025TG", "EPOCH": "2025-12-23T19:06:11.951424", "MEAN_MOTION": 13.84486451, "ECCENTRICITY": 0.01632341, "INCLINATION": 99.0629, "RA_OF_ASC_NODE": 5.3915, "ARG_OF_PERICENTER": 248.9472, "MEAN_ANOMALY": 294.174, "EPHEMERIS_TYPE": 0, "CLASSIFICATION_TYPE": "U", "NORAD_CAT_ID": 30151, "ELEMENT_SET_NO": 999, "REV_AT_EPOCH": 95398, "BSTAR": 0.00044477497, "MEAN_MOTION_DOT": 5.09e-06, "MEAN_MOTION_DDOT": 0}, "tle": {"line1": "1 30151U 99025TG  25357.79597166  .00000509  00000+0  44477-3 0  9999", "line2": "2 30151  99.0629   5.3915 0163234 248.9472 294.1740 13.84486451953980"}}, "geometry": {"type": "Point", "coordinates": [-169.15877192212704, 24.28165629639402]}}, {"type": "Feature", "properties": {"norad_id": 30152, "name": "FENGYUN 1C DEB", "group": "fengyun-1c-debris", "lat": 69.48845383984731, "lon": 62.06846526952852, "alt_km": 832.6918714609965, "timestamp": "2025-12-25T03:55:56.632199+00:00", "meta": {"OBJECT_NAME": "FENGYUN 1C DEB", "OBJECT_ID": "1999-025TH", "EPOCH": "2025-12-24T13:40:33.934080", "MEAN_MOTION": 13.96769351, "ECCENTRICITY": 0.0162515, "INCLINATION": 99.0803, "RA_OF_ASC_NODE": 216.1751, "ARG_OF_PERICENTER": 52.8846, "MEAN_ANOMALY": 308.7042, "EPHEMERIS_TYPE": 0, "CLASSIFICATION_TYPE": "U", "NORAD_CAT_ID": 30152, "ELEMENT_SET_NO": 999, "REV_AT_EPOCH": 95543, "BSTAR": 0.0021986, "MEAN_MOTION_DOT": 3.372e-05, "MEAN_MOTION_DDOT": 0}, "tle": {"line1": "1 30152U 99025TH  25358.56983720  .00003372  00000+0  21986-2 0  9991", "line2": "2 30152  99.0803 216.1751 0162515  52.8846 308.7042 13.96769351955438"}}, "geometry": {"type": "Point", "coordinates": [62.06846526952852, 69.48845383984731]}}, {"type": "Feature", "properties": {"norad_id": 30153, "name": "FENGYUN 1C DEB", "group": "fengyun-1c-debris", "lat": 23.879660652817986, "lon": -13.863211951443438, "alt_km": 871.6322387189557, "timestamp": "2025-12-25T03:55:56.632211+00:00", "meta": {"OBJECT_NAME": "FENGYUN 1C DEB", "OBJECT_ID": "1999-025TJ", "EPOCH": "2025-12-23T22:28:15.225312", "MEAN_MOTION": 13.78800406, "ECCENTRICITY": 0.0200458, "INCLINATION": 100.4678, "RA_OF_ASC_NODE": 349.4771, "ARG_OF_PERICENTER": 337.2126, "MEAN_ANOMALY": 75.3276, "EPHEMERIS_TYPE": 0, "CLASSIFICATION_TYPE": "U", "NORAD_CAT_ID": 30153, "ELEMENT_SET_NO": 999, "REV_AT_EPOCH": 94929, "BSTAR": 0.0011251, "MEAN_MOTION_DOT": 1.276e-05, "MEAN_MOTION_DDOT": 0}, "tle": {"line1": "1 30153U 99025TJ  25357.93628733  .00001276  00000+0  11251-2 0  9997", "line2": "2 30153 100.4678 349.4771 0200458 337.2126  75.3276 13.78800406949298"}}, "geometry": {"type": "Point", "coordinates": [-13.863211951443438, 23.879660652817986]}}, {"type": "Feature", "properties": {"norad_id": 30154, "name": "FENGYUN 1C DEB", "group": "fengyun-1c-debris", "lat": -54.03864828599944, "lon": -152.07335812937495, "alt_km": 901.314792818499, "timestamp": "2025-12-25T03:55:56.632221+00:00", "meta": {"OBJECT_NAME": "FENGYUN 1C DEB", "OBJECT_ID": "1999-025TK", "EPOCH": "2025-12-24T15:19:00.035904", "MEAN_MOTION": 13.86032737, "ECCENTRICITY": 0.0182989, "INCLINATION": 98.4484, "RA_OF_ASC_NODE": 39.2728, "ARG_OF_PERICENTER": 166.3932, "MEAN_ANOMALY": 325.0604, "EPHEMERIS_TYPE": 0, "CLASSIFICATION_TYPE": "U", "NORAD_CAT_ID": 30154, "ELEMENT_SET_NO": 999, "REV_AT_EPOCH": 95149, "BSTAR": 0.0015058, "MEAN_MOTION_DOT": 1.939e-05, "MEAN_MOTION_DDOT": 0}, "tle": {"line1": "1 30154U 99025TK  25358.63819486  .00001939  00000+0  15058-2 0  9998", "line2": "2 30154  98.4484  39.2728 0182989 166.3932 325.0604 13.86032737951498"}}, "geometry": {"type": "Point", "coordinates": [-152.07335812937495, -54.03864828599944]}}, {"type": "Feature", "properties": {"norad_id": 30155, "name": "FENGYUN 1C DEB", "group": "fengyun-1c-debris", "lat": -79.7299126314268, "lon": -178.6874784394345, "alt_km": 863.8761602543045, "timestamp": "2025-12-25T03:55:56.632232+00:00", "meta": {"OBJECT_NAME": "FENGYUN 1C DEB", "OBJECT_ID": "1999-025TL", "EPOCH": "2025-12-24T17:52:45.910848", "MEAN_MOTION": 13.73851656, "ECCENTRICITY": 0.0242674, "INCLINATION": 99.7513, "RA_OF_ASC_NODE": 72.5166, "ARG_OF_PERICENTER": 312.5385, "MEAN_ANOMALY": 45.5497, "EPHEMERIS_TYPE": 0, "CLASSIFICATION_TYPE": "U", "NORAD_CAT_ID": 30155, "ELEMENT_SET_NO": 999, "REV_AT_EPOCH": 94029, "BSTAR": 0.0018968, "MEAN_MOTION_DOT": 2.149e-05, "MEAN_MOTION_DDOT": 0}, "tle": {"line1": "1 30155U 99025TL  25358.74497582  .00002149  00000+0  18968-2 0  9997", "line2": "2 30155  99.7513  72.5166 0242674 312.5385  45.5497 13.73851656940292"}}, "geometry": {"type": "Point", "coordinates": [-178.6874784394345, -79.7299126314268]}}, {"type": "Feature", "properties": {"norad_id": 30156, "name": "FENGYUN 1C DEB", "group": "fengyun-1c-debris", "lat": 65.84080741300656, "lon": 165.97083478854358, "alt_km": 1018.0157703438199, "timestamp": "2025-12-25T03:55:56.632242+00:00", "meta": {"OBJECT_NAME": "FENGYUN 1C DEB", "OBJECT_ID": "1999-025TM", "EPOCH": "2025-12-24T20:45:16.128864", "MEAN_MOTION": 13.80846167, "ECCENTRICITY": 0.0198507, "INCLINATION": 98.9196, "RA_OF_ASC_NODE": 325.1947, "ARG_OF_PERICENTER": 230.2024, "MEAN_ANOMALY": 198.4046, "EPHEMERIS_TYPE": 0, "CLASSIFICATION_TYPE": "U", "NORAD_CAT_ID": 30156, "ELEMENT_SET_NO": 999, "REV_AT_EPOCH": 94858, "BSTAR": 0.0010802, "MEAN_MOTION_DOT": 1.279e-05, "MEAN_MOTION_DDOT": 0}, "tle": {"line1": "1 30156U 99025TM  25358.86477001  .00001279  00000+0  10802-2 0  9997", "line2": "2 30156  98.9196 325.1947 0198507 230.2024 198.4046 13.80846167948583"}}, "geometry": {"type": "Point", "coordinates": [165.97083478854358, 65.84080741300656]}}, {"type": "Feature", "properties": {"norad_id": 30157, "name": "FENGYUN 1C DEB", "group": "fengyun-1c-debris", "lat": 25.429883354811526, "lon": 92.34090915110049, "alt_km": 757.6793988802665, "timestamp": "2025-12-25T03:55:56.632252+00:00", "meta": {"OBJECT_NAME": "FENGYUN 1C DEB", "OBJECT_ID": "1999-025TN", "EPOCH": "2025-12-24T06:30:03.653568", "MEAN_MOTION": 14.45252792, "ECCENTRICITY": 0.00369606, "INCLINATION": 98.7145, "RA_OF_ASC_NODE": 95.607, "ARG_OF_PERICENTER": 159.967, "MEAN_ANOMALY": 262.7951, "EPHEMERIS_TYPE": 0, "CLASSIFICATION_TYPE": "U", "NORAD_CAT_ID": 30157, "ELEMENT_SET_NO": 999, "REV_AT_EPOCH": 98239, "BSTAR": 0.0021716886, "MEAN_MOTION_DOT": 7.642e-05, "MEAN_MOTION_DDOT": 0}, "tle": {"line1": "1 30157U 99025TN  25358.27087562  .00007642  00000+0  21717-2 0  9999", "line2": "2 30157  98.7145  95.6070 0036960 159.9670 262.7951 14.45252792982394"}}, "geometry": {"type": "Point", "coordinates": [92.34090915110049, 25.429883354811526]}}]}